[
  {
    "id": 28126956,
    "VRS:gemeinde": "KÖLN",
    "VRS:name": "Bf Deutz/Messe LANXESS arena",
    "VRS:ortsteil": "Deutz",
    "VRS:ref": "11901",
    "name": "Köln Messe/Deutz (tief)",
    "network": "VRS",
    "note": "Beachte: Die Gleise 1 bis 8, 9 und 10 (S-Bahn) sowie 11 und12 (tief) haben unterschiedliche uic_ref.",
    "note:2": "name=* ist der betriebliche Name;auf dem Stationsschild steht lediglich \"Köln Messe/Deutz\"",
    "operator": "DB Netz AG",
    "public_transport": "station",
    "railway": "station",
    "railway:ref": "KKDT",
    "railway:station_category": "1",
    "toilets:wheelchair": "yes",
    "uic_name": "Köln Messe/Deutz Gl. 11-12",
    "uic_ref": "8073368",
    "url": "https://www.bahnhof.de/koeln-messe-deutz",
    "wheelchair": "yes",
    "wheelchair:description": "Vom Fernverkehr ist die S-Bahn nur über eine herkömmliche Treppe zu erreichen.",
    "wikidata": "Q151146",
    "wikipedia": "de:Bahnhof Köln Messe/Deutz"
  },
  {
    "id": 55471454,
    "VRS:gemeinde": "BERGHEIM",
    "VRS:name": "Quadrath-Ichendorf Bf",
    "VRS:ref": "88301",
    "addr:city": "Bergheim",
    "addr:housenumber": "11",
    "addr:postcode": "50127",
    "addr:street": "Frenser Straße",
    "name": "Quadrath-Ichendorf",
    "operator": "DB Netz AG;DB Station&Service AG",
    "public_transport": "station",
    "railway": "halt",
    "railway:ref": "KQ",
    "railway:ref:count": "1/2",
    "railway:station_category": "6",
    "ref:station": "5065",
    "uic_ref": "8004907",
    "wheelchair": "yes",
    "wikidata": "Q14506318",
    "wikipedia": "de:Bahnhof Quadrath-Ichendorf"
  },
  {
    "id": 60049754,
    "VRS:gemeinde": "BERGHEIM",
    "VRS:name": "Bergheim Bf",
    "VRS:ortsteil": "Mitte",
    "VRS:ref": "88101",
    "name": "Bergheim (Erft)",
    "note": "Linie RB 38",
    "operator": "DB Netz AG",
    "public_transport": "station",
    "railway": "station",
    "railway:ref": "KBEE",
    "railway:station_category": "6",
    "ref:VRS": "88101",
    "uic_name": "Bergheim(Erft)",
    "uic_ref": "8000355",
    "wheelchair": "no"
  },
  {
    "id": 74880878,
    "VRS:gemeinde": "KÖLN",
    "VRS:name": "Bf Deutz/Messe LANXESS arena",
    "VRS:ortsteil": "Deutz",
    "VRS:ref": "11901",
    "name": "Köln Messe/Deutz",
    "name:de": "Köln Messe/Deutz",
    "name:en": "Cologne Trade Fair/Deutz",
    "network": "VRS",
    "note": "Beachte: Die Gleise 1 bis 8, 9 und 10 (S-Bahn) sowie 11 und12 (tief) haben unterschiedliche uic_ref.",
    "operator": "DB Netz AG",
    "public_transport": "station",
    "railway": "station",
    "railway:ref": "KKDZ",
    "railway:station_category": "1",
    "toilets:wheelchair": "yes",
    "uic_ref": "8003368",
    "url": "https://www.bahnhof.de/koeln-messe-deutz",
    "wheelchair": "limited",
    "wheelchair:description": "keine Aufzüge zu den Gleisen! außer zur S- Bahn\r\nMan muss also per Aufzug aufs Sbahn Gleis, dann bis Hauptbahnhof fahren und dort per Aufzüge auf ein anderes Gleis zum Fernverkehr....",
    "wikidata": "Q151146",
    "wikipedia": "de:Bahnhof Köln Messe/Deutz"
  },
  {
    "id": 194109128,
    "VRS:gemeinde": "ROMMERSKIRCHEN",
    "VRS:name": "Rommerskirchen Bf/Postamt",
    "VRS:ortsteil": "Mitte",
    "VRS:ref": "92201",
    "name": "Rommerskirchen",
    "network": "Verkehrsverbund Rhein-Ruhr",
    "operator": "DB Netz AG;DB Station&Service AG",
    "public_transport": "station",
    "railway": "station",
    "railway:ref": "KROM",
    "railway:station_category": "5",
    "uic_ref": "8005159",
    "wheelchair": "no",
    "wikidata": "Q2193863"
  },
  {
    "id": 250523622,
    "VRS:gemeinde": "DORMAGEN",
    "VRS:name": "Bayerwerk (S)",
    "VRS:ortsteil": "Mitte",
    "VRS:ref": "92301",
    "name": "Dormagen Chempark",
    "official_name": "Dormagen Chempark (Nordbahnsteig)",
    "old_name": "Dormagen Bayerwerk",
    "operator": "DB Netz AG",
    "public_transport": "station",
    "railway": "halt",
    "railway:ref": "KDBWN",
    "railway:station_category": "6",
    "source": "survey",
    "uic_ref": "8001507",
    "wheelchair": "no",
    "wheelchair:description": "Gleis 2 Richtung Worringen/Köln. Mehr Informationen siehe Bahnhof Dormagen Chempark. Track 2 in the direktion to Worringen/Koeln."
  },
  {
    "id": 253984659,
    "name": "Hilden Süd",
    "operator": "DB Netz AG",
    "public_transport": "station",
    "railway": "halt",
    "railway:ref": "KHIS",
    "railway:station_category": "5",
    "uic_ref": "8002828",
    "wheelchair": "yes",
    "wikidata": "Q2325808",
    "wikipedia": "de:Haltepunkt Hilden Süd"
  },
  {
    "id": 309447968,
    "name": "Thermalbad",
    "operator": "Kleinbahn.Koeln GmbH",
    "railway": "halt",
    "station": "miniature",
    "usage": "leisure",
    "website": "http://kleinbahn.koeln/",
    "wheelchair": "no"
  },
  {
    "id": 309447985,
    "name": "Rosengarten",
    "operator": "Kleinbahn.Koeln GmbH",
    "railway": "halt",
    "station": "miniature",
    "usage": "leisure",
    "website": "http://kleinbahn.koeln/",
    "wheelchair": "no"
  },
  {
    "id": 309448038,
    "name": "Tanzbrunnen",
    "operator": "Kleinbahn.Koeln GmbH",
    "public_transport": "station",
    "railway": "station",
    "station": "miniature",
    "usage": "leisure",
    "website": "http://kleinbahn.koeln/",
    "wheelchair": "no"
  },
  {
    "id": 310844645,
    "name": "Hochneukirch",
    "network": "Verkehrsverbund Rhein-Ruhr",
    "operator": "DB Netz AG;DB Station&Service AG",
    "public_transport": "station",
    "railway": "halt",
    "railway:ref": "KHOK",
    "railway:station_category": "6",
    "uic_ref": "8000390",
    "wheelchair": "no",
    "wikidata": "Q18616525",
    "wikipedia": "de:Bahnhof Hochneukirch"
  },
  {
    "id": 330080965,
    "name": "Kuhbrücke",
    "official_name": "Düren Kuhbrücke",
    "operator": "Rurtalbahn GmbH",
    "public_transport": "station",
    "railway": "halt",
    "railway:ref": "KKBR",
    "start_date": "1993",
    "uic_ref": "8007833",
    "wheelchair": "yes",
    "wikidata": "Q1935699",
    "wikipedia": "nl:Station Kuhbrücke"
  },
  {
    "id": 454096894,
    "VRS:gemeinde": "BERGHEIM",
    "VRS:name": "Zieverich Bf",
    "VRS:ortsteil": "Zieverich",
    "VRS:ref": "88102",
    "name": "Bergheim Zieverich",
    "network": "VRS",
    "official_name": "Zieverich",
    "operator": "DB Station&Service AG",
    "public_transport": "station",
    "railway": "halt",
    "railway:ref": "KZI",
    "railway:station_category": "5",
    "train": "yes",
    "uic_ref": "8006659",
    "wheelchair": "no",
    "wikidata": "Q116155661"
  },
  {
    "id": 457884244,
    "VRS:gemeinde": "PULHEIM",
    "VRS:name": "Stommeln Bf",
    "VRS:ortsteil": "Stommeln",
    "VRS:ref": "81401",
    "addr:city": "Pulheim",
    "addr:postcode": "50259",
    "name": "Stommeln",
    "operator": "DB Netz AG",
    "public_transport": "station",
    "railway": "halt",
    "railway:ref": "KSOM",
    "railway:station_category": "5",
    "ref": "1",
    "ref:IFOPT": "de:05362:81401",
    "train": "yes",
    "uic_ref": "8005746",
    "wheelchair": "yes",
    "wheelchair:description": "Beide Seitenbahnsteige ebenerdig und stufenlos erreichbar. Überquerung am Bahnübergang stufenlos möglich",
    "wikidata": "Q801469",
    "wikipedia": "de:Bahnhof Stommeln"
  },
  {
    "id": 482670014,
    "VRS:gemeinde": "GREVENBROICH",
    "VRS:name": "Frimmersdorf Bf",
    "VRS:ortsteil": "Frimmersdorf",
    "VRS:ref": "92103",
    "name": "Frimmersdorf",
    "operator": "DB InfraGO AG",
    "public_transport": "station",
    "railway": "halt",
    "railway:ref": "KFRI",
    "railway:station_category": "6",
    "ref:station": "1963",
    "uic_ref": "8002127"
  },
  {
    "id": 496803264,
    "name": "Vettweiß-Jakobwüllesheim",
    "network": "AVV",
    "operator": "Rurtalbahn GmbH",
    "public_transport": "station",
    "railway": "halt",
    "railway:ref": "KJW",
    "train": "yes",
    "uic_ref": "8071022",
    "wheelchair": "limited"
  },
  {
    "id": 606504127,
    "VRS:gemeinde": "HÜRTH",
    "VRS:name": "Kalscheuren Bf",
    "VRS:ortsteil": "Kalscheuren",
    "VRS:ref": "83901",
    "addr:city": "Hürth",
    "addr:postcode": "50354",
    "name": "Hürth-Kalscheuren",
    "network": "VRS",
    "operator": "DB Netz AG",
    "public_transport": "station",
    "railway": "station",
    "railway:ref": "KKAS",
    "railway:station_category": "4",
    "uic_ref": "8003160",
    "wheelchair": "limited",
    "wikidata": "Q637039"
  },
  {
    "id": 1221724880,
    "VRS:gemeinde": "SOLINGEN",
    "VRS:name": "Solingen Vogelpark (S)",
    "VRS:ortsteil": "Ohligs",
    "VRS:ref": "93303",
    "description": "Solingen Vogelpark",
    "name": "Solingen Vogelpark",
    "operator": "DB Netz AG",
    "public_transport": "station",
    "railway": "halt",
    "railway:ref": "KSV",
    "railway:station_category": "5",
    "uic_ref": "8006714",
    "wikidata": "Q7558157",
    "wikipedia": "de:Haltepunkt Solingen Vogelpark"
  },
  {
    "id": 1293148815,
    "VRS:gemeinde": "BORNHEIM",
    "VRS:name": "Roisdorf Bf",
    "VRS:ortsteil": "Roisdorf",
    "VRS:ref": "53101",
    "alt_name": "Bornheim-Roisdorf",
    "check_date:wheelchair": "2024-04-23",
    "internet_access": "no",
    "name": "Roisdorf",
    "network": "VRS",
    "operator": "DB Netz AG",
    "public_transport": "station",
    "railway": "station",
    "railway:ref": "KROI",
    "railway:station_category": "5",
    "uic_ref": "8005152",
    "wheelchair": "no",
    "wikidata": "Q7359885",
    "wikipedia": "en:Roisdorf station"
  },
  {
    "id": 1299991277,
    "VRS:gemeinde": "LEVERKUSEN",
    "VRS:name": "Schlebusch Bf",
    "VRS:ortsteil": "Manfort",
    "VRS:ref": "21201",
    "addr:postcode": "51377",
    "name": "Leverkusen-Manfort",
    "network": "Verkehrsverbund Rhein-Sieg",
    "old_name": "Leverkusen-Schlebusch",
    "opening_hours": "24/7",
    "operator": "DB Netz AG",
    "outdoor_seating": "no",
    "public_transport": "station",
    "railway": "station",
    "railway:ref": "KLS",
    "railway:station_category": "5",
    "toilets:wheelchair": "no",
    "uic_ref": "8003669",
    "website": "https://www.bahnhof.de/leverkusen-manfort",
    "wheelchair": "no",
    "wikidata": "Q6535310"
  },
  {
    "id": 1578607665,
    "name": "Köln Geldernstraße/Parkgürtel",
    "official_name": "Köln Geldernstr/Parkgürtel",
    "operator": "DB Netz AG",
    "public_transport": "station",
    "railway": "halt",
    "railway:ref": "KKP",
    "railway:station_category": "4",
    "toilets:wheelchair": "yes",
    "uic_ref": "8003360",
    "wheelchair": "yes",
    "wheelchair:description": "Aufzug vorhanden",
    "wikidata": "Q1894075",
    "wikipedia": "de:Haltepunkt Köln Geldernstraße/Parkgürtel"
  },
  {
    "id": 1611636589,
    "VRS:gemeinde": "KÖLN",
    "VRS:name": "Bf Mülheim",
    "VRS:ortsteil": "Mülheim",
    "VRS:ref": "19201",
    "name": "Köln-Mülheim",
    "network": "VRS",
    "operator": "DB Netz AG",
    "public_transport": "station",
    "railway": "station",
    "railway:ref": "KKM",
    "railway:station_category": "3",
    "uic_ref": "8000209",
    "wheelchair": "no",
    "wheelchair:description": "Nur der S-Bahn Bahnsteig ist rollstuhlgerecht. Die Bahnsteige der Regionalzüge jedoch nicht! (nur Treppe)",
    "wikidata": "Q320345",
    "wikipedia": "de:Bahnhof Köln-Mülheim"
  },
  {
    "id": 1868965217,
    "name": "Norf",
    "network": "VRR",
    "operator": "DB Netz AG",
    "public_transport": "station",
    "railway": "station",
    "railway:ref": "KNO",
    "railway:station_category": "5",
    "uic_ref": "8004462",
    "wheelchair": "limited",
    "wikidata": "Q649388"
  },
  {
    "id": 1956883000,
    "name": "Nörvenich-Binsfeld",
    "operator": "Rurtalbahn GmbH",
    "public_transport": "station",
    "railway": "halt",
    "railway:ref": "KBIF",
    "service": "seasonal",
    "uic_ref": "8071257",
    "wheelchair": "yes"
  },
  {
    "id": 1956883135,
    "name": "Vettweiß",
    "network": "AVV",
    "operator": "Rurtalbahn GmbH",
    "public_transport": "station",
    "railway": "halt",
    "railway:ref": "KVET",
    "service": "seasonal",
    "train": "yes",
    "uic_ref": "8006079",
    "wheelchair": "yes"
  },
  {
    "id": 2037964450,
    "loc_name": "Langerwehe",
    "name": "Langerwehe",
    "operator": "DB Netz AG",
    "public_transport": "station",
    "railway": "station",
    "railway:ref": "KLAW",
    "railway:station_category": "5",
    "train": "yes",
    "uic_ref": "8003553",
    "website": "http://fahrplan.avv.de/bookmark.php?2AVV%3A4566,0,5,1,0,0,1,0,0",
    "wikidata": "Q322573",
    "wikipedia": "de:Bahnhof Langerwehe"
  },
  {
    "id": 2125271624,
    "VRS:gemeinde": "BRÜHL",
    "VRS:name": "Brühl Bf",
    "VRS:ortsteil": "Innenstadt",
    "VRS:ref": "84101",
    "addr:city": "Brühl",
    "addr:postcode": "50321",
    "image": "http://upload.wikimedia.org/wikipedia/commons/9/9e/Bahnhof_Br%C3%BChl.jpg",
    "name": "Brühl",
    "network": "VRS",
    "operator": "DB Netz AG",
    "phone": "+49 221 1411055",
    "public_transport": "station",
    "railway": "station",
    "railway:ref": "KBR",
    "railway:station_category": "4",
    "uic_ref": "8001215",
    "website": "http://www.bahnhof.de/#station/17512",
    "wheelchair": "yes",
    "wheelchair:description": "Treppenlifte sind vorhanden, die Nutzung muss vorher angemeldet werden.",
    "wikidata": "Q800584",
    "wikipedia": "de:Bahnhof Brühl"
  },
  {
    "id": 2150281210,
    "name": "Frechen-Königsdorf",
    "network": "VRS",
    "operator": "DB Netz AG",
    "public_transport": "station",
    "railway": "halt",
    "railway:ref": "KFKO",
    "railway:station_category": "5",
    "uic_ref": "8002389",
    "wheelchair": "yes",
    "wikidata": "Q2207338"
  },
  {
    "id": 2204326323,
    "VRS:gemeinde": "SOLINGEN",
    "VRS:ortsteil": "Ohligs",
    "VRS:ref": "93301",
    "his:1929-2006:name": "Solingen-Ohligs",
    "name": "Solingen Hauptbahnhof",
    "network": "VRR",
    "official_name": "Solingen Hbf",
    "old_name": "Solingen-Ohligs",
    "operator": "DB Netz AG",
    "public_transport": "station",
    "railway": "station",
    "railway:ref": "KSO",
    "railway:station_category": "2",
    "uic_ref": "8000087",
    "url": "https://www.bahnhof.de/solingen-hbf",
    "wheelchair": "yes",
    "wikidata": "Q471599",
    "wikipedia": "de:Solingen Hauptbahnhof"
  },
  {
    "id": 2386391386,
    "name": "Düsseldorf-Benrath",
    "network": "VRR",
    "operator": "DB Netz AG",
    "public_transport": "station",
    "railway": "halt",
    "railway:ref": "KDBE",
    "railway:station_category": "3",
    "train": "yes",
    "uic_ref": "8001584",
    "wheelchair": "limited",
    "wheelchair:description": "Aufzüge für beide Bahnsteige vorhanden. Einstieg zu S-Bahn für Rollstuhlfahrer wegen Differenz zwischen Bahnsteig und Bodenhöhe des Zuges nicht möglich.",
    "wikidata": "Q473906",
    "wikipedia": "de:Haltepunkt Düsseldorf-Benrath"
  },
  {
    "id": 2399559029,
    "addr:city": "Köln",
    "addr:country": "DE",
    "addr:housenumber": "11",
    "addr:postcode": "50667",
    "addr:street": "Trankgasse",
    "contact:website": "https://bahnhof.de/koeln-hbf",
    "iata": "QKL",
    "iata:note": "Den IATA-Code hat der Bahnhof wegen des AIRail-Verkehrsangebots.",
    "name": "Köln Hauptbahnhof",
    "name:de": "Köln Hauptbahnhof",
    "name:el": "Κεντρικός Σταθμός Κολωνίας",
    "name:en": "Cologne Central Station",
    "name:es": "Estación Central de Colonia",
    "name:fr": "Gare centrale de Cologne",
    "name:it": "Stazione di Köln Hauptbahnhof",
    "name:ja": "ケルン中央駅",
    "name:nl": "Keulen Centraal Station",
    "name:oc": "Gara centrala de Colonha",
    "name:ru": "Кёльн-Главный",
    "name:th": "สถานีรถไฟโคโลญ",
    "name:zh": "科隆中央車站",
    "network": "DB",
    "note": "\"Köln Hauptbahnhof\" ist die im Fahrplan und vor Ort ausgewiesene Bezeichnung, formal handelt es sich um den seit 27.07.14 um den Bahnhofsteil \"Köln Hbf, Bft Köln Hbf\" (getagged als separater Punkt)",
    "official_name": "Köln Hbf",
    "operator": "DB InfraGO AG",
    "public_transport": "station",
    "railway": "station",
    "railway:ref": "KK",
    "railway:station_category": "1",
    "ref:station": "3320",
    "short_name": "Köln Hbf",
    "source:name": "wikipedia",
    "start_date": "1859",
    "toilets:wheelchair": "yes",
    "train": "yes",
    "uic_name": "Köln Hbf",
    "uic_ref": "8000207",
    "wheelchair": "yes",
    "wikidata": "Q1954",
    "wikipedia": "de:Köln Hauptbahnhof"
  },
  {
    "id": 2414810726,
    "name": "Düren Im Großen Tal",
    "operator": "Rurtalbahn GmbH",
    "public_transport": "station",
    "railway": "halt",
    "railway:ref": "KDNG",
    "uic_ref": "8007836",
    "wheelchair": "yes"
  },
  {
    "id": 2463736408,
    "layer": "1",
    "level": "1",
    "name": "Düsseldorf-Garath",
    "network": "VRR",
    "operator": "DB Netz AG",
    "public_transport": "station",
    "railway": "halt",
    "railway:ref": "KDGA",
    "railway:station_category": "5",
    "ref": "Düsseldorf-Garath",
    "shelter": "yes",
    "train": "yes",
    "uic_ref": "8001589",
    "wheelchair": "yes",
    "wikidata": "Q323712",
    "wikipedia": "de:Haltepunkt Düsseldorf-Garath"
  },
  {
    "id": 2481148776,
    "name": "Dormagen",
    "network": "Verkehrsverbund Rhein-Ruhr",
    "operator": "DB Netz AG",
    "public_transport": "station",
    "railway": "station",
    "railway:ref": "KDO",
    "railway:station_category": "4",
    "ref:IFOPT": "de:5162:20268",
    "uic_ref": "8001506",
    "wheelchair": "limited",
    "wikidata": "Q2754617"
  },
  {
    "id": 2640970110,
    "departures_board": "timetable",
    "name": "Leverkusen Mitte",
    "name:en": "Leverkusen Central Station",
    "note": "Bft von Leverkusen-Küppersteg",
    "operator": "DB Netz AG",
    "platforms": "4",
    "public_transport": "station",
    "railway": "station",
    "railway:ref": "KLMI",
    "railway:ref:parent": "KLK",
    "railway:station_category": "4",
    "uic_ref": "8006713",
    "wheelchair": "limited",
    "wheelchair:description": "Nur über Stufen erreichbar"
  },
  {
    "id": 2677877169,
    "VRS:gemeinde": "KÖLN",
    "VRS:name": "Hansaring",
    "VRS:ortsteil": "Innenstadt",
    "VRS:ref": "11801",
    "layer": "1",
    "name": "Köln Hansaring",
    "network": "VRS",
    "operator": "DB Netz AG",
    "public_transport": "station",
    "railway": "station",
    "railway:ref": "KKHR",
    "railway:ref:parent": "KK",
    "railway:station_category": "4",
    "toilets:wheelchair": "no",
    "train": "yes",
    "uic_ref": "8003392",
    "wheelchair": "yes",
    "wheelchair:description": "Aufzug vorhanden.",
    "wikidata": "Q323880",
    "wikimedia_commons": "Category:Bahnhof Köln-Hansaring",
    "wikipedia": "en:Köln Hansaring station"
  },
  {
    "id": 2677877171,
    "VRS:gemeinde": "KÖLN",
    "VRS:name": "Hans-Böckler-Platz/Bf West",
    "VRS:ortsteil": "Innenstadt",
    "VRS:ref": "11701",
    "name": "Köln West",
    "name:de": "Köln West",
    "name:en": "Cologne West",
    "network": "VRS",
    "operator": "DB Netz AG",
    "public_transport": "station",
    "railway": "station",
    "railway:ref": "KKW",
    "railway:station_category": "4",
    "uic_ref": "8003363",
    "wheelchair": "yes",
    "wheelchair:description": "Der Bahnsteig ist über einen Aufzug mit der U-Bahn und der Strasse verbunden. Der Bahnsteig ist niedrig, so muss eine Stufe in den Zug passiert werden. In den Bahnhof(Kneipe) kommt man nur über eine Stufe.",
    "wikidata": "Q801047",
    "wikimedia_commons": "Category:Bahnhof Köln-West",
    "wikipedia": "de:Bahnhof Köln West"
  },
  {
    "id": 2706250003,
    "VRS:gemeinde": "BORNHEIM",
    "VRS:name": "Sechtem Bf",
    "VRS:ortsteil": "Sechtem",
    "VRS:ref": "53501",
    "name": "Sechtem",
    "network": "VRS",
    "operator": "DB Netz AG",
    "public_transport": "station",
    "railway": "station",
    "railway:ref": "KSEC",
    "railway:station_category": "4",
    "toilets:wheelchair": "no",
    "uic_ref": "8005499",
    "wheelchair": "yes",
    "wheelchair:description": "Beide Gleise über Rampen / Aufzüge erreichbar",
    "wikidata": "Q27478729",
    "wikipedia": "de:Bahnhof Sechtem"
  },
  {
    "id": 2719476432,
    "VRS:gemeinde": "BEDBURG",
    "VRS:name": "Bedburg Bf",
    "VRS:ortsteil": "Mitte",
    "VRS:ref": "89101",
    "name": "Bedburg (Erft)",
    "network": "VRS",
    "operator": "DB Netz AG",
    "public_transport": "station",
    "railway": "station",
    "railway:ref": "KBE",
    "railway:station_category": "6",
    "uic_ref": "8000030",
    "wheelchair": "no",
    "wikidata": "Q52117031"
  },
  {
    "id": 2720022653,
    "VRS:gemeinde": "BERGHEIM",
    "VRS:name": "Paffendorf Bf",
    "VRS:ortsteil": "Paffendorf",
    "VRS:ref": "88901",
    "name": "Paffendorf",
    "network": "VRS",
    "operator": "DB Station&Service AG",
    "public_transport": "station",
    "railway": "halt",
    "railway:ref": "KPFF",
    "railway:station_category": "6",
    "uic_ref": "8004746"
  },
  {
    "id": 2725597440,
    "name": "Glesch",
    "network": "Verkehrsverbund Rhein-Sieg",
    "operator": "DB Netz AG",
    "public_transport": "station",
    "railway": "halt",
    "railway:ref": "KGL",
    "railway:station_category": "6",
    "uic_ref": "8002290"
  },
  {
    "id": 2725676502,
    "VRS:gemeinde": "GREVENBROICH",
    "VRS:name": "Gustorf Bf",
    "VRS:ortsteil": "Gustorf",
    "VRS:ref": "92161",
    "name": "Gustorf",
    "operator": "DB Netz AG",
    "public_transport": "station",
    "railway": "station",
    "railway:ref": "KGUS",
    "railway:station_category": "6",
    "uic_ref": "8002477"
  },
  {
    "id": 2725732468,
    "VRS:gemeinde": "GREVENBROICH",
    "VRS:name": "Grevenbroich Bf",
    "VRS:ortsteil": "Mitte",
    "VRS:ref": "92101",
    "addr:city": "Grevenbroich",
    "addr:housenumber": "17",
    "addr:postcode": "41515",
    "addr:street": "Bahnhofsvorplatz",
    "name": "Grevenbroich",
    "operator": "DB Netz AG;DB Station&Service AG",
    "public_transport": "station",
    "railway": "station",
    "railway:ref": "KGRB",
    "railway:station_category": "4",
    "ref:station": "2263",
    "train": "yes",
    "uic_ref": "8000133",
    "wheelchair": "yes",
    "wikidata": "Q800839",
    "wikipedia": "de:Bahnhof Grevenbroich"
  },
  {
    "id": 2750667866,
    "VRS:gemeinde": "KÖLN",
    "VRS:name": "Longerich S-Bahn",
    "VRS:ortsteil": "Longerich",
    "VRS:ref": "15501",
    "addr:city": "Köln",
    "addr:country": "DE",
    "addr:housenumber": "37",
    "addr:postcode": "50739",
    "addr:street": "Grethenstraße",
    "check_date:wheelchair": "2023-02-20",
    "name": "Köln-Longerich",
    "network": "VRS",
    "operator": "DB Netz AG",
    "public_transport": "station",
    "railway": "station",
    "railway:ref": "KKL",
    "railway:station_category": "4",
    "uic_ref": "8003371",
    "wheelchair": "no",
    "wikidata": "Q2789196",
    "wikipedia": "en:Köln-Longerich station"
  },
  {
    "id": 2752279582,
    "VRS:gemeinde": "DORMAGEN",
    "VRS:name": "Nievenheim (S)",
    "VRS:ortsteil": "Nievenheim",
    "VRS:ref": "92401",
    "name": "Nievenheim",
    "network": "VRR",
    "operator": "DB Netz AG",
    "public_transport": "station",
    "railway": "station",
    "railway:ref": "KNIV",
    "railway:station_category": "6",
    "ref:IFOPT": "de:5162:20314",
    "uic_ref": "8004434",
    "wheelchair": "yes",
    "wikidata": "Q1808571"
  },
  {
    "id": 2752318320,
    "name": "Neuss Allerheiligen",
    "network": "Verkehrsverbund Rhein-Ruhr",
    "network:short": "VRR",
    "operator": "DB Netz AG",
    "operator:short": "DB",
    "public_transport": "station",
    "railway": "halt",
    "railway:ref": "KNAL",
    "railway:station_category": "6",
    "ref:IFOPT": "de:05162:20727:98",
    "train": "yes",
    "uic_ref": "8004335",
    "wheelchair": "yes",
    "wikidata": "Q2203472"
  },
  {
    "id": 2753942444,
    "name": "Leverkusen-Rheindorf",
    "operator": "DB Netz AG",
    "platforms": "2",
    "public_transport": "station",
    "railway": "halt",
    "railway:ref": "KLRH",
    "railway:ref:count": "1/2",
    "railway:station_category": "5",
    "uic_ref": "8003672",
    "wheelchair": "limited",
    "wikidata": "Q2646038",
    "wikimedia_commons": "Category:Bahnhof Leverkusen-Rheindorf",
    "wikipedia": "en:Leverkusen-Rheindorf station"
  },
  {
    "id": 2753953788,
    "name": "Leverkusen-Küppersteg",
    "network": "Verkehrsverbund Rhein-Sieg",
    "note": "\"Leverkusen-Küppersteg Hp\" ist die offizielle Betriebsstellenbezeichnung, aus der auch hervorgeht, dass diese Station ein Haltpunkt (railway=halt) und kein Bahnhof (railway=station) ist",
    "official_name": "Leverkusen-Küppersteg Hp",
    "operator": "DB Netz AG",
    "platforms": "2",
    "public_transport": "station",
    "railway": "halt",
    "railway:ref": "KLKH",
    "railway:station_category": "5",
    "uic_ref": "8003668",
    "wikidata": "Q2752463"
  },
  {
    "id": 2753966033,
    "name": "Leverkusen Chempark",
    "note": "Wurde von \"Bayerwerk\" umbenannt in \"Leverkusen Chempark\"; ehemals Haltepunkt, seit August 2022 Bahnhof",
    "official_name": "Leverkusen Chempark Hp",
    "old_name": "Bayerwerk",
    "operator": "DB Netz AG",
    "public_transport": "station",
    "railway": "station",
    "railway:ref": "KBAY",
    "railway:ref:count": "1/2",
    "railway:station_category": "5",
    "train": "yes",
    "uic_ref": "8000832",
    "wheelchair": "yes",
    "wikidata": "Q2797536"
  },
  {
    "id": 2753970571,
    "name": "Köln-Stammheim",
    "operator": "DB Netz AG",
    "public_transport": "station",
    "railway": "halt",
    "railway:ref": "KKSH",
    "railway:station_category": "5",
    "uic_ref": "8003310",
    "wheelchair": "yes",
    "wheelchair:description": "kein WC",
    "wikidata": "Q2636631"
  },
  {
    "id": 2817574529,
    "layer": "1",
    "level": "1",
    "name": "Düsseldorf-Hellerhof",
    "network": "VRR",
    "operator": "DB Netz AG",
    "public_transport": "station",
    "rail": "yes",
    "railway": "halt",
    "railway:ref": "KDHL",
    "railway:station_category": "5",
    "train": "yes",
    "uic_ref": "8004920",
    "wheelchair": "yes",
    "wikidata": "Q13479643",
    "wikipedia": "de:Haltepunkt Düsseldorf-Hellerhof"
  },
  {
    "id": 2892625102,
    "name": "Tuchmühle",
    "official_name": "Kreuzau Tuchmühle",
    "operator": "Rurtalbahn GmbH",
    "public_transport": "station",
    "railway": "halt",
    "railway:ref": "KTUM",
    "uic_ref": "8007834",
    "wheelchair": "yes",
    "wikidata": "Q2956657",
    "wikipedia": "nl:Station Niederau-Tuchmühle"
  },
  {
    "id": 2911579600,
    "name": "Rheydt-Odenkirchen",
    "network": "Verkehrsverbund Rhein-Ruhr",
    "operator": "DB Netz AG;DB Station&Service AG",
    "public_transport": "station",
    "railway": "station",
    "railway:ref": "KRYO",
    "railway:station_category": "6",
    "uic_ref": "8005073",
    "wheelchair": "no",
    "wikidata": "Q2072479",
    "wikipedia": "de:Bahnhof Rheydt-Odenkirchen"
  },
  {
    "id": 2955703565,
    "VRS:gemeinde": "LANGENFELD (RHLD.)",
    "VRS:name": "Berghausen (S)",
    "VRS:ortsteil": "Berghausen",
    "VRS:ref": "93101",
    "name": "Langenfeld (Rheinl)-Berghausen",
    "note": "Aufgrund fehlender Weichen im Stadionsbereich offenbar Haltepunkt (railway=halt) statt Bahnhof (railway=station)",
    "operator": "DB Netz AG",
    "public_transport": "station",
    "railway": "halt",
    "railway:ref": "KLAB",
    "railway:station_category": "5",
    "uic_ref": "8003539",
    "wheelchair": "no",
    "wikidata": "Q6485914",
    "wikipedia": "de:Haltepunkt Langenfeld-Berghausen"
  },
  {
    "id": 3008960389,
    "VRS:gemeinde": "BRÜHL",
    "VRS:name": "Kierberg Bf",
    "VRS:ortsteil": "Kierberg",
    "VRS:ref": "84501",
    "name": "Brühl-Kierberg",
    "network": "VRS",
    "old_name": "Kierberg",
    "operator": "DB Netz AG",
    "public_transport": "station",
    "railway": "halt",
    "railway:ref": "KKIE",
    "railway:station_category": "5",
    "uic_ref": "8003252",
    "wheelchair": "yes",
    "wikidata": "Q801005",
    "wikipedia": "de:Bahnhof Brühl-Kierberg"
  },
  {
    "id": 3013018448,
    "VRS:gemeinde": "ERFTSTADT",
    "VRS:name": "Erftstadt Bf",
    "VRS:ortsteil": "Liblar",
    "VRS:ref": "86301",
    "name": "Erftstadt",
    "old_name": "Liblar",
    "operator": "DB Netz AG;DB Station&Service AG",
    "public_transport": "station",
    "railway": "station",
    "railway:ref": "KEST",
    "railway:station_category": "4",
    "train": "yes",
    "uic_ref": "8003671",
    "wheelchair": "yes",
    "wikidata": "Q15107159",
    "wikimedia_commons": "Category:Erftstadt train station",
    "wikipedia": "de:Bahnhof Erftstadt"
  },
  {
    "id": 3027987871,
    "VRS:gemeinde": "WEILERSWIST",
    "VRS:name": "Weilerswist Bf",
    "VRS:ortsteil": "Mitte",
    "VRS:ref": "71101",
    "name": "Weilerswist",
    "operator": "DB Netz AG",
    "public_transport": "station",
    "railway": "halt",
    "railway:ref": "KWES",
    "railway:station_category": "6",
    "uic_ref": "8006280",
    "wheelchair": "yes"
  },
  {
    "id": 3039835136,
    "name": "Holzheim (bei Neuss)",
    "network": "VRR",
    "official_name": "Holzheim (b Neuss)",
    "operator": "DB Netz AG",
    "public_transport": "station",
    "railway": "station",
    "railway:ref": "KHOZ",
    "railway:station_category": "6",
    "uic_ref": "8002979",
    "wheelchair": "yes",
    "wikidata": "Q116155629"
  },
  {
    "id": 3044304327,
    "check_date:wheelchair": "2022-08-16",
    "name": "Köln Süd",
    "name:de": "Köln Süd",
    "name:en": "Cologne South",
    "network": "VRS",
    "operator": "DB Netz AG",
    "public_transport": "station",
    "railway": "station",
    "railway:ref": "KKS",
    "railway:station_category": "4",
    "ref": "1",
    "uic_ref": "8003361",
    "wheelchair": "no",
    "wikidata": "Q801050",
    "wikipedia": "de:Bahnhof Köln Süd"
  },
  {
    "id": 3185278561,
    "VRS:gemeinde": "KERPEN",
    "VRS:name": "Buir Bf",
    "VRS:ortsteil": "Buir",
    "VRS:ref": "87601",
    "name": "Buir",
    "network": "VRS",
    "operator": "DB Netz AG",
    "public_transport": "station",
    "railway": "halt",
    "railway:ref": "KBUH",
    "railway:station_category": "5",
    "uic_ref": "8001264"
  },
  {
    "id": 3214361873,
    "name": "Leverkusen Mitte",
    "name:en": "Leverkusen Central Station",
    "official_name": "Leverkusen Mitte Hp",
    "operator": "DB Netz AG",
    "public_transport": "station",
    "railway": "halt",
    "railway:ref": "KLMH",
    "railway:station_category": "4",
    "uic_ref": "8006713",
    "wheelchair": "no",
    "wheelchair:description": "Nur über Stufen erreichbar"
  },
  {
    "id": 3218812644,
    "check_date:wheelchair": "2023-09-04",
    "name": "Rheydt Hauptbahnhof",
    "network": "VRR",
    "official_name": "Rheydt Hbf",
    "operator": "DB Netz AG",
    "public_transport": "station",
    "railway": "station",
    "railway:ref": "KRY",
    "railway:station_category": "4",
    "uic_ref": "8000318",
    "wheelchair": "limited",
    "wikidata": "Q130508",
    "wikimedia_commons": "Category:Rheydt Hauptbahnhof",
    "wikipedia": "de:Rheydt Hauptbahnhof"
  },
  {
    "id": 3218812645,
    "name": "Wickrath",
    "operator": "DB Netz AG",
    "public_transport": "station",
    "railway": "halt",
    "railway:ref": "KWIC",
    "railway:station_category": "6",
    "uic_ref": "8006391",
    "wheelchair": "limited",
    "wikidata": "Q2486430"
  },
  {
    "id": 3221719052,
    "name": "Kapellen-Wevelinghoven",
    "network": "VRR",
    "operator": "DB Netz AG",
    "public_transport": "station",
    "rail": "yes",
    "railway": "halt",
    "railway:ref": "KKAW",
    "railway:station_category": "6",
    "ref:IFOPT": "de:5162:20013:90",
    "uic_ref": "8003174"
  },
  {
    "id": 3244655858,
    "VRS:gemeinde": "DORMAGEN",
    "VRS:name": "Bayerwerk (S)",
    "VRS:ortsteil": "Mitte",
    "VRS:ref": "92301",
    "name": "Dormagen Chempark",
    "official_name": "Dormagen Chempark (Südbahnsteig)",
    "old_name": "Dormagen Bayerwerk",
    "operator": "DB Netz AG",
    "public_transport": "station",
    "railway": "halt",
    "railway:ref": "KDBW",
    "railway:station_category": "6",
    "source": "survey",
    "uic_ref": "8001507",
    "wheelchair": "limited",
    "wheelchair:description": "Gleis 1 Richtung Dormagen/Neuss/Düsseldorf barrierefrei zu erreichen. KEIN ZUGANG AUS RICHTUNG PARALLELWEG(Fußgängerbrücke)! Zugang nur zu Tor 5 und zum Fußweg Richtung Dormagen. Gleis 2 Richtung Worringen/Köln nicht Barrierefrei zu erreichen. #Track 1 i"
  },
  {
    "id": 3246508187,
    "VRS:gemeinde": "KÖLN",
    "VRS:name": "Worringen S-Bahn",
    "VRS:ortsteil": "Worringen",
    "VRS:ref": "16601",
    "name": "Köln-Worringen",
    "operator": "DB InfraGO AG",
    "operator:wikidata": "Q122870674",
    "public_transport": "station",
    "railway": "station",
    "railway:ref": "KKWO",
    "railway:station_category": "5",
    "source": "survey",
    "train": "yes",
    "uic_ref": "8003373",
    "wheelchair": "yes",
    "wikidata": "Q12013415",
    "wikipedia": "de:Bahnhof Köln-Worringen"
  },
  {
    "id": 3391374870,
    "name": "Kreuzau Eifelstraße",
    "operator": "Rurtalbahn GmbH",
    "public_transport": "station",
    "railway": "halt",
    "railway:ref": "KKUZE",
    "uic_ref": "8007830",
    "wikidata": "Q2426093",
    "wikipedia": "nl:Station Kreuzau Eifelstraße"
  },
  {
    "id": 3394529177,
    "image": "http://commons.wikimedia.org/wiki/File:Bf-kreuzau.jpg",
    "name": "Kreuzau",
    "operator": "Rurtalbahn GmbH",
    "public_transport": "station",
    "railway": "station",
    "railway:ref": "KKUZ",
    "train": "yes",
    "uic_ref": "8007820",
    "wikidata": "Q2294781",
    "wikipedia": "nl:Station Kreuzau"
  },
  {
    "id": 3410872222,
    "name": "Annakirmesplatz",
    "official_name": "Düren Annakirmesplatz",
    "old_name": "Düren Süd",
    "operator": "Rurtalbahn GmbH",
    "public_transport": "station",
    "railway": "halt",
    "railway:ref": "KDNS",
    "train": "yes",
    "uic_ref": "8007818",
    "wikidata": "Q2230101",
    "wikipedia": "nl:Station Düren Annakirmesplatz"
  },
  {
    "id": 3410872224,
    "name": "Lendersdorf",
    "operator": "Rurtalbahn GmbH",
    "public_transport": "station",
    "railway": "station",
    "railway:ref": "KLED",
    "uic_ref": "8007819",
    "wheelchair": "yes",
    "wikidata": "Q2513221",
    "wikipedia": "nl:Station Lendersdorf"
  },
  {
    "id": 3410874850,
    "name": "Renkerstraße/Krankenhaus",
    "official_name": "Düren Renkerstraße",
    "operator": "Rurtalbahn GmbH",
    "public_transport": "station",
    "railway": "halt",
    "railway:ref": "KDNR",
    "uic_ref": "8007832",
    "wheelchair": "yes",
    "wikidata": "Q2281205",
    "wikipedia": "nl:Station Düren Renkerstraße"
  },
  {
    "id": 3416627720,
    "VRS:gemeinde": "DÜREN",
    "VRS:name": "Düren Bf",
    "VRS:ortsteil": "Mitte",
    "VRS:ref": "91401",
    "addr:city": "Düren",
    "addr:housenumber": "1",
    "addr:postcode": "52351",
    "addr:street": "Hauptbahnhof",
    "name": "Düren",
    "network": "AVV;VRS",
    "operator": "DB Netz AG;DB Station&Service AG",
    "public_transport": "station",
    "railway": "station",
    "railway:ref": "KDN",
    "railway:station_category": "3",
    "ref:station": "1392",
    "train": "yes",
    "uic_ref": "8000084",
    "website": "https://www.bahnhof.de/dueren",
    "wheelchair": "no",
    "wikidata": "Q320766",
    "wikimedia_commons": "Category:Düren Hauptbahnhof",
    "wikipedia": "de:Bahnhof Düren"
  },
  {
    "id": 3431293467,
    "name": "Mönchengladbach-Genhausen",
    "network": "VRR",
    "operator": "DB Netz AG",
    "public_transport": "station",
    "railway": "halt",
    "railway:ref": "KMGE",
    "railway:station_category": "7",
    "uic_ref": "8004061"
  },
  {
    "id": 3486999438,
    "name": "Herrath",
    "operator": "DB Netz AG",
    "public_transport": "station",
    "railway": "halt",
    "railway:ref": "KHER",
    "railway:station_category": "6",
    "uic_ref": "8002784",
    "wikidata": "Q43109305"
  },
  {
    "id": 3601214539,
    "VRS:gemeinde": "LEICHLINGEN",
    "VRS:name": "Leichlingen Bf",
    "VRS:ortsteil": "Mitte",
    "VRS:ref": "33101",
    "name": "Leichlingen",
    "network": "VRS",
    "operator": "DB Netz AG",
    "public_transport": "station",
    "railway": "station",
    "railway:ref": "KLEL",
    "railway:station_category": "5",
    "uic_ref": "8003616",
    "wheelchair": "yes",
    "wikidata": "Q6519306"
  },
  {
    "id": 3655927375,
    "VRS:gemeinde": "KÖLN",
    "VRS:name": "Bf Deutz/Messe LANXESS arena",
    "VRS:ortsteil": "Deutz",
    "VRS:ref": "11901",
    "name": "Köln Messe/Deutz",
    "name:de": "Köln Messe/Deutz",
    "name:en": "Cologne Trade Fair/Deutz",
    "network": "VRS",
    "note": "Beachte: Die Gleise 1 bis 8, 9 und 10 (S-Bahn) sowie 11 und12 (tief) haben unterschiedliche uic_ref.",
    "official_name": "Köln Messe/Deutz Hp (S-Bahn)",
    "operator": "DB Netz AG",
    "public_transport": "station",
    "railway": "halt",
    "railway:ref": "KKDZB",
    "railway:ref:parent": "KKDZ",
    "railway:station_category": "1",
    "toilets:wheelchair": "yes",
    "uic_name": "Köln Messe/Deutz Gl. 9-10",
    "uic_ref": "8083368",
    "wheelchair": "yes",
    "wikidata": "Q151146",
    "wikipedia": "de:Bahnhof Köln Messe/Deutz"
  },
  {
    "id": 3677652428,
    "name": "Hilden",
    "name:ar": "هلدن",
    "operator": "DB Netz AG",
    "public_transport": "station",
    "railway": "station",
    "railway:ref": "KHI",
    "railway:station_category": "4",
    "toilets:wheelchair": "yes",
    "train": "yes",
    "uic_ref": "8000388",
    "wheelchair": "yes",
    "wikidata": "Q2785190",
    "wikipedia": "de:Bahnhof Hilden"
  },
  {
    "id": 3801267269,
    "VRS:gemeinde": "KÖLN",
    "VRS:name": "Trimbornstraße",
    "VRS:ortsteil": "Kalk",
    "VRS:ref": "18001",
    "name": "Köln Trimbornstraße",
    "network": "VRS",
    "operator": "DB Netz AG",
    "public_transport": "station",
    "railway": "halt",
    "railway:ref": "KKTR",
    "railway:station_category": "4",
    "uic_ref": "8003320",
    "wheelchair": "yes",
    "wheelchair:description": "Aufzug am Eingang Trimbornstraße.",
    "wikidata": "Q2140413",
    "wikimedia_commons": "Category:Bahnhof Köln-Trimbornstraße",
    "wikipedia": "en:Köln-Trimbornstraße station"
  },
  {
    "id": 3863808336,
    "VRS:gemeinde": "KÖLN",
    "VRS:name": "Blumenberg (S)",
    "VRS:ortsteil": "Blumenberg",
    "VRS:ref": "16701",
    "name": "Köln-Blumenberg",
    "network": "VRS",
    "operator": "DB Netz AG",
    "public_transport": "station",
    "railway": "halt",
    "railway:ref": "KKBL",
    "railway:station_category": "5",
    "uic_ref": "8079140",
    "wheelchair": "yes",
    "wikidata": "Q1869321",
    "wikipedia": "en:Köln-Blumenberg station"
  },
  {
    "id": 3863808337,
    "VRS:gemeinde": "KÖLN",
    "VRS:name": "Chorweiler Nord (S)",
    "VRS:ortsteil": "Chorweiler",
    "VRS:ref": "16301",
    "check_date:wheelchair": "2021-06-06",
    "name": "Köln-Chorweiler Nord",
    "network": "VRS",
    "operator": "DB Netz AG",
    "public_transport": "station",
    "railway": "station",
    "railway:ref": "KKCN",
    "railway:station_category": "4",
    "uic_ref": "8003366",
    "wheelchair": "no",
    "wikidata": "Q2982603",
    "wikimedia_commons": "Category:Bahnhof Köln-Chorweiler Nord",
    "wikipedia": "en:Köln-Chorweiler Nord station"
  },
  {
    "id": 3863889283,
    "VRS:gemeinde": "KÖLN",
    "VRS:name": "Chorweiler",
    "VRS:ortsteil": "Chorweiler",
    "VRS:ref": "16101",
    "bus": "no",
    "name": "Köln-Chorweiler",
    "network": "VRS",
    "operator": "DB Netz AG",
    "public_transport": "station",
    "railway": "halt",
    "railway:ref": "KKC",
    "railway:station_category": "4",
    "train": "yes",
    "tram": "no",
    "uic_ref": "8003365",
    "wheelchair": "yes",
    "wikidata": "Q2227",
    "wikimedia_commons": "Category:Bahnhof Köln-Chorweiler",
    "wikipedia": "de:Bahnhof Köln-Chorweiler"
  },
  {
    "id": 3895872989,
    "VRS:gemeinde": "LEVERKUSEN",
    "VRS:name": "Opladen Bf",
    "VRS:ortsteil": "Opladen",
    "VRS:ref": "22101",
    "local_ref": "1",
    "name": "Opladen",
    "name:ar": "أبلادن",
    "network": "VRS",
    "operator": "DB Netz AG",
    "platforms": "2",
    "public_transport": "station",
    "railway": "station",
    "railway:ref": "KOPL",
    "railway:station_category": "4",
    "ref": "1",
    "uic_ref": "8000853",
    "wheelchair": "yes",
    "wikidata": "Q7098349",
    "wikipedia": "de:Bahnhof Opladen"
  },
  {
    "id": 4016819431,
    "name": "Huchem-Stammeln",
    "operator": "Rurtalbahn GmbH",
    "public_transport": "station",
    "railway": "halt",
    "railway:ref": "KHUS",
    "uic_ref": "8007817",
    "wheelchair": "yes",
    "wikidata": "Q106978291"
  },
  {
    "id": 4016819433,
    "bench": "yes",
    "name": "Jülich Forschungszentrum",
    "old_name": "Jülich Süd",
    "operator": "Rurtalbahn GmbH",
    "public_transport": "station",
    "railway": "halt",
    "railway:ref": "KJSU",
    "railway:ref:count": "1/2",
    "shelter": "yes",
    "uic_ref": "8007815",
    "wheelchair": "yes"
  },
  {
    "id": 4016819434,
    "name": "Jülich Nord",
    "operator": "Rurtalbahn GmbH",
    "public_transport": "station",
    "railway": "halt",
    "railway:ref": "KJND",
    "uic_ref": "8007802",
    "wheelchair": "yes"
  },
  {
    "id": 4016819435,
    "name": "Jülich-Broich",
    "operator": "Rurtalbahn GmbH",
    "public_transport": "station",
    "railway": "halt",
    "railway:ref": "KJB",
    "uic_ref": "8007801",
    "wheelchair": "yes"
  },
  {
    "id": 4016819436,
    "name": "Jülich-Selgersdorf",
    "operator": "Rurtalbahn GmbH",
    "public_transport": "station",
    "railway": "halt",
    "railway:ref": "KJSE",
    "uic_ref": "8007814",
    "wheelchair": "limited"
  },
  {
    "id": 4016819438,
    "name": "Krauthausen",
    "operator": "Rurtalbahn GmbH",
    "public_transport": "station",
    "railway": "station",
    "railway:ref": "KNKR",
    "railway:ref:count": "1/2",
    "toilets:wheelchair": "no",
    "uic_ref": "8007816",
    "wheelchair": "yes",
    "wikidata": "Q106978424"
  },
  {
    "id": 4016819440,
    "name": "Selhausen",
    "network": "AVV",
    "operator": "Rurtalbahn GmbH",
    "public_transport": "station",
    "railway": "halt",
    "railway:ref": "KSHS",
    "uic_ref": "8007835"
  },
  {
    "id": 4307150032,
    "name": "Jüchen",
    "operator": "DB Netz AG",
    "public_transport": "station",
    "railway": "halt",
    "railway:ref": "KJUC",
    "railway:station_category": "6",
    "toilets:wheelchair": "no",
    "uic_ref": "8003130"
  },
  {
    "id": 4344801404,
    "name": "Jülich",
    "operator": "Rurtalbahn GmbH",
    "public_transport": "station",
    "railway": "station",
    "railway:ref": "KJ",
    "train": "yes",
    "uic_ref": "8000188",
    "wheelchair": "limited",
    "wikidata": "Q800970",
    "wikimedia_commons": "Category:Bahnhof Jülich",
    "wikipedia": "de:Bahnhof Jülich"
  },
  {
    "id": 4538174597,
    "VRS:gemeinde": "KERPEN",
    "VRS:name": "Horrem Bf",
    "VRS:ortsteil": "Horrem",
    "VRS:ref": "87303",
    "layer": "2",
    "name": "Horrem",
    "network": "VRS",
    "operator": "DB Netz AG",
    "public_transport": "station",
    "railway": "station",
    "railway:ref": "KHR",
    "railway:station_category": "3",
    "uic_name": "Horrem",
    "uic_ref": "8000178",
    "website": "https://www.bahnhof.de/horrem",
    "wheelchair": "yes",
    "wikidata": "Q800933",
    "wikimedia_commons": "Category:Bahnhof Horrem",
    "wikipedia": "de:Bahnhof Horrem"
  },
  {
    "id": 4551541317,
    "VRS:gemeinde": "KÖLN",
    "VRS:name": "Bf Ehrenfeld",
    "VRS:ortsteil": "Ehrenfeld",
    "VRS:ref": "14201",
    "alt_name": "Köln-Ehrenfeld Pbf",
    "name": "Köln-Ehrenfeld",
    "network": "VRS",
    "note": "\"Köln-Ehrenfeld Pbf\" ist die offizielle Betriebsstellenbezeichnung",
    "operator": "DB Netz AG",
    "public_transport": "station",
    "railway": "station",
    "railway:ref": "KKER",
    "railway:station_category": "3",
    "toilets:wheelchair": "no",
    "uic_ref": "8000208",
    "wheelchair": "yes",
    "wheelchair:description": "Der Aufzug an Bahnsteig 3 und 4 ist wegen Bauarbeiten außer Betrieb!",
    "wikidata": "Q3131028"
  },
  {
    "id": 4551541318,
    "VRS:gemeinde": "KÖLN",
    "VRS:name": "Müngersdorf S-Bahn Technologiepark",
    "VRS:ortsteil": "Müngersdorf",
    "VRS:ref": "13501",
    "name": "Köln-Müngersdorf/Technologiepark",
    "network": "VRS",
    "official_name": "Köln-Müngersdorf Technologiepark",
    "operator": "DB Netz AG",
    "public_transport": "station",
    "railway": "halt",
    "railway:ref": "KKMT",
    "railway:ref:parent": "KKER",
    "railway:station_category": "5",
    "uic_ref": "8003375",
    "wheelchair": "yes",
    "wikidata": "Q2061554"
  },
  {
    "id": 4551541319,
    "VRS:gemeinde": "KÖLN",
    "VRS:name": "Bf Lövenich",
    "VRS:ortsteil": "Lövenich",
    "VRS:ref": "13701",
    "name": "Lövenich",
    "name:official": "Köln-Lövenich S-Bahn",
    "network": "VRS",
    "operator": "DB Netz AG",
    "public_transport": "station",
    "railway": "halt",
    "railway:ref": "KLO",
    "railway:station_category": "5",
    "uic_ref": "8003732",
    "wheelchair": "yes",
    "wikidata": "Q832943"
  },
  {
    "id": 4551541320,
    "VRS:gemeinde": "KÖLN",
    "VRS:ortsteil": "Weiden",
    "VRS:ref": "13702",
    "name": "Köln-Weiden West",
    "network": "VRS",
    "operator": "DB Netz AG",
    "public_transport": "station",
    "railway": "halt",
    "railway:ref": "KKWW",
    "railway:station_category": "5",
    "uic_ref": "8003383",
    "wheelchair": "yes",
    "wikidata": "Q95702"
  },
  {
    "id": 4551541321,
    "name": "Sindorf",
    "network": "VRS",
    "operator": "DB Netz AG",
    "platforms": "1",
    "public_transport": "station",
    "railway": "station",
    "railway:ref": "KSIU",
    "railway:station_category": "6",
    "uic_ref": "8005575",
    "wheelchair": "yes",
    "wikidata": "Q2320837"
  },
  {
    "id": 4551541322,
    "VRS:gemeinde": "MERZENICH",
    "VRS:name": "Merzenich (S)",
    "VRS:ortsteil": "Mitte",
    "VRS:ref": "91405",
    "lines": "S13;S19",
    "name": "Merzenich",
    "network": "AVV;VRS",
    "operator": "DB Netz AG",
    "passenger_lines": "2",
    "public_transport": "station",
    "railway": "halt",
    "railway:ref": "KMEZ",
    "railway:station_category": "5",
    "uic_ref": "8003990",
    "wheelchair": "limited",
    "wikidata": "Q2832093"
  },
  {
    "id": 4571472769,
    "VRS:gemeinde": "KÖLN",
    "VRS:name": "Volkhovener Weg",
    "VRS:ortsteil": "Volkhoven/Weiler",
    "VRS:ref": "16201",
    "name": "Köln Volkhovener Weg",
    "operator": "DB Netz AG",
    "public_transport": "station",
    "railway": "halt",
    "railway:ref": "KKV",
    "railway:station_category": "5",
    "source": "survey",
    "toilets:wheelchair": "no",
    "uic_ref": "8003362",
    "wheelchair": "yes",
    "wikidata": "Q2217662"
  },
  {
    "id": 4571513918,
    "VRS:gemeinde": "KÖLN",
    "VRS:name": "Nippes S-Bahn",
    "VRS:ortsteil": "Nippes",
    "VRS:ref": "15001",
    "name": "Köln-Nippes",
    "operator": "DB Netz AG",
    "public_transport": "station",
    "railway": "station",
    "railway:ref": "KKN",
    "railway:station_category": "5",
    "train": "yes",
    "uic_ref": "8003372",
    "wheelchair": "yes",
    "wikidata": "Q2371981"
  },
  {
    "id": 4571562010,
    "VRS:gemeinde": "PULHEIM",
    "VRS:name": "Pulheim Bf",
    "VRS:ortsteil": "Mitte",
    "VRS:ref": "81101",
    "addr:city": "Pulheim",
    "addr:postcode": "50259",
    "name": "Pulheim",
    "network": "Verkehrsverbund Rhein-Sieg",
    "operator": "DB Netz AG",
    "public_transport": "station",
    "railway": "station",
    "railway:ref": "KPUL",
    "railway:station_category": "5",
    "uic_ref": "8004898",
    "website": "https://mobile.bahn.de/bin/mobil/bhftafel.exe/dox?ld=96236&rt=1&input=Pulheim%238004898&boardType=dep&time=actual&productsDefault=1111101&start=yes&maxJourneys=10",
    "wheelchair": "yes",
    "wheelchair:description": "Beide Seitenbahnsteige über Unterführung mit Rampe rollstuhlgerecht erreichbar.",
    "wikidata": "Q14537901",
    "wikimedia_commons": "Category:Bahnhof Pulheim",
    "wikipedia": "de:Bahnhof Pulheim"
  },
  {
    "id": 4571574550,
    "description": "Der funktionierende Aufzug ist der einzige barrierefreie Zugang zu diesem Haltepunkt. Vor der Reise daher besser die Rufnummer 0221-141-1055 (3S-Zentrale Köln) anrufen oder über die App \"DB Bahnhof live\" den Aufzugstatus abfragen.",
    "name": "Köln-Buchforst",
    "network": "VRS",
    "operator": "DB Netz AG",
    "public_transport": "station",
    "railway": "halt",
    "railway:ref": "KKBH",
    "railway:station_category": "5",
    "uic_ref": "8003364",
    "wheelchair": "yes",
    "wikidata": "Q2224",
    "wikipedia": "de:Haltepunkt Köln-Buchforst"
  },
  {
    "id": 4597025889,
    "name": "Langenfeld (Rheinland)",
    "network": "VRR",
    "official_name": "Langenfeld (Rheinl)",
    "operator": "DB Netz AG",
    "public_transport": "station",
    "railway": "station",
    "railway:ref": "KLA",
    "railway:station_category": "5",
    "uic_name": "Langenfeld (Rheinl)",
    "uic_ref": "8003540",
    "wheelchair": "limited",
    "wikidata": "Q2257484",
    "wikipedia": "de:Bahnhof Langenfeld (Rheinland)"
  },
  {
    "id": 4671136816,
    "name": "Mönchengladbach-Rheindahlen",
    "network": "VRR",
    "operator": "DB Netz AG",
    "public_transport": "station",
    "railway": "station",
    "railway:ref": "KMR",
    "railway:station_category": "7",
    "uic_ref": "8004063",
    "wheelchair": "no",
    "wikidata": "Q19274497",
    "wikipedia": "de:Bahnhof Mönchengladbach-Rheindahlen"
  },
  {
    "id": 4885194088,
    "name": "Heimersdorf",
    "public_transport": "station",
    "railway": "halt",
    "tram": "yes",
    "wikidata": "Q63442130"
  },
  {
    "id": 6114260152,
    "name": "Holthausen",
    "railway": "halt",
    "station": "subway",
    "wheelchair": "yes"
  },
  {
    "id": 6130288134,
    "name": "An den Aspen",
    "operator": "Rurtalbahn GmbH",
    "public_transport": "station",
    "railway": "halt",
    "wheelchair": "yes"
  },
  {
    "id": 7266668287,
    "name": "Nörvenich-Rommelsheim",
    "network": "AVV",
    "operator": "Rurtalbahn GmbH",
    "public_transport": "station",
    "railway": "halt",
    "railway:ref": "KRO",
    "wheelchair": "yes"
  },
  {
    "id": 10536483809,
    "name": "Benrath Betriebshof",
    "public_transport": "station",
    "railway": "station",
    "station": "subway",
    "subway": "yes",
    "wheelchair": "yes"
  },
  {
    "id": 10537135217,
    "name": "Benrath S",
    "railway": "halt",
    "station": "subway"
  },
  {
    "id": 10537135218,
    "name": "Urdenbacher Allee",
    "railway": "halt",
    "station": "subway"
  },
  {
    "id": 10537135219,
    "name": "Schloss Benrath",
    "railway": "halt",
    "station": "subway"
  },
  {
    "id": 10537135220,
    "name": "Kappeler Straße",
    "railway": "halt",
    "station": "subway"
  },
  {
    "id": 10537135221,
    "name": "Schöne Aussicht",
    "railway": "halt",
    "station": "subway"
  },
  {
    "id": 10537135222,
    "name": "Am Trippelsberg",
    "railway": "halt",
    "station": "subway"
  },
  {
    "id": 10537135223,
    "name": "Niederheid",
    "railway": "halt",
    "station": "subway"
  }
]
